IRIDIUM 106             
1 41917U 17003A   23263.12655517  .00000437  00000+0  14914-3 0  9996
2 41917  86.4007 146.9129 0001935  76.4683 283.6728 14.34220967349722
IRIDIUM 103             
1 41918U 17003B   23263.39294416  .00000403  00000+0  13695-3 0  9991
2 41918  86.4007 146.7044 0002370  79.5397 280.6066 14.34218983349791
IRIDIUM 109             
1 41919U 17003C   23263.39928293  .00000432  00000+0  14711-3 0  9991
2 41919  86.4008 146.7447 0002226  87.2426 272.9024 14.34221113349774
IRIDIUM 102             
1 41920U 17003D   23262.60011714  .00000388  00000+0  13157-3 0  9990
2 41920  86.4006 147.0232 0002121  84.9969 275.1468 14.34220276349721
IRIDIUM 105             
1 41921U 17003E   23262.71038986  .00000387  00000+0  13123-3 0  9995
2 41921  86.3940 115.4093 0002113  84.1682 275.9754 14.34217838351591
IRIDIUM 104             
1 41922U 17003F   23262.75234234  .00000394  00000+0  13362-3 0  9997
2 41922  86.4008 146.9873 0002222  82.0965 278.0483 14.34219146349735
IRIDIUM 114             
1 41923U 17003G   23262.75868461  .00000331  00000+0  11119-3 0  9992
2 41923  86.4007 146.9712 0001779  80.5305 279.6092 14.34217209349735
IRIDIUM 108             
1 41924U 17003H   23262.71720456  .00000283  00000+0  93907-4 0  9992
2 41924  86.3935 115.3488 0001996  77.3061 282.8357 14.34218109351585
